CENTRE NAME,SERVICE CODE,PHONE NUMBER,LATITUDE,LONGITUDE,SERVICE DAY,COMMUNITY,TOWN,APOSTLE,Apostleship
ACC ABURI 1,AC0010,233779658326,0,0,THURSDAY,MAMPONG,MAMPONG,Amartey,Emmanuel Amartey
ACC ABURI 2,AC0011,233477619463,0,0,THURSDAY,GYANKAMA,TUTU/ GYANKAMA/ AHWRASE,Amartey,Emmanuel Amartey
ACC ABURI 3,AC0012,233024373465,5.848,-0.174,THURSDAY,AHWRASE,ABURI/ PEDUASE / KITASE,Amartey,Emmanuel Amartey
ACC ABURI 4,AC0013,233353732948,5.8591,-0.1799,THURSDAY,PEDUASE,AMANOKROM,Amartey,Emmanuel Amartey
ACC ABURI 5,AC0014,233971589717,5.848,-0.1745,THURSDAY,KITASE,AKROPONG/ MAMFE/ KWAMOSO,Amartey,Emmanuel Amartey
ACC ABURI 6,AC0015,233427914500,5.912526,-142313,THURSDAY,MAMFE,MAMPONG,Amartey,Emmanuel Amartey
ACC ABURI 7,AC0016,233041884150,5.843043,-0.174231,THURSDAY,KWAMOSO,TUTU/ GYANKAMA/ AHWRASE,Amartey,Emmanuel Amartey
ACC ABURI 8,AC0017,233837344861,5.848,-0.1745,THURSDAY,TUTU,ABURI/ PEDUASE / KITASE,Amartey,Emmanuel Amartey
ACC ABURI 9,AC0018,233718552116,5.8433,-0.1739,THURSDAY,ABURI,AMANOKROM,Amartey,Emmanuel Amartey
ACC AHWERASE 1,AC0035,233164083058,5.651494,-0.134952,THURSDAY,PEDUASE,MAMPONG,Amartey,Emmanuel Amartey
ACC AHWERASE 10,AC0044,233897555989,5.86452,-0.162366,THURSDAY,GYANKAMA,AKROPONG/ MAMFE/ KWAMOSO,Amartey,Emmanuel Amartey
ACC AHWERASE 11,AC0118,233498206637,5.864213,-0.163105,THURSDAY,MAMFE,AKROPONG/ MAMFE/ KWAMOSO,Amartey,Emmanuel Amartey
ACC AHWERASE 4,AC0038,233441326983,5.52078,-0.09377,THURSDAY,KWAMOSO,AMANOKROM,Amartey,Emmanuel Amartey
ACC AHWERASE 5,AC0039,233966051410,5.864614,-0.162373,THURSDAY,TUTU,AKROPONG/ MAMFE/ KWAMOSO,Amartey,Emmanuel Amartey
ACC AHWERASE 6,AC0040,233701121215,5.867796,-0.158912,THURSDAY,ABURI,MAMPONG,Amartey,Emmanuel Amartey
ACC AHWERASE 7,AC0041,233838554839,5.873862,-0.15748,THURSDAY,AMANOKROM,TUTU/ GYANKAMA/ AHWRASE,Amartey,Emmanuel Amartey
ACC AHWERASE 8,AC0042,233606256393,5.861494,-0.164952,THURSDAY,AKROPONG,ABURI/ PEDUASE / KITASE,Amartey,Emmanuel Amartey
ACC AHWERASE 9,AC0043,233863695524,5.865504,-0.16268,THURSDAY,MAMPONG,AMANOKROM,Amartey,Emmanuel Amartey
ACC AHWERASE2,AC0036,233672270329,5.8215733,-0.4036939,THURSDAY,KITASE,TUTU/ GYANKAMA/ AHWRASE,Amartey,Emmanuel Amartey
ACC AHWERASE3,AC0037,233132036045,5.867793,-0.158911,THURSDAY,MAMFE,ABURI/ PEDUASE / KITASE,Amartey,Emmanuel Amartey
ACC AKROPONG 1,AC0073,233280852721,5.964756,-0.094369,THURSDAY,ABURI,AMANOKROM,Amartey,Emmanuel Amartey
ACC AKROPONG 10,AC0082,233458246207,5.986158,-0.085211,THURSDAY,KWAMOSO,ABURI/ PEDUASE / KITASE,Amartey,Emmanuel Amartey
ACC AKROPONG 11,AC0083,233802212902,5.97056,-0.089167,THURSDAY,TUTU,AMANOKROM,Amartey,Emmanuel Amartey
ACC AKROPONG 12,AC0084,233548119121,5.9670378,-0.0836045,THURSDAY,ABURI,AKROPONG/ MAMFE/ KWAMOSO,Amartey,Emmanuel Amartey
ACC AKROPONG 13,AC0119,233481571432,5.950926,-0.072845,THURSDAY,KWAMOSO,MAMPONG,Amartey,Emmanuel Amartey
ACC AKROPONG 2,AC0074,233435990169,5.979209,-0.08696,THURSDAY,AMANOKROM,AKROPONG/ MAMFE/ KWAMOSO,Amartey,Emmanuel Amartey
ACC AKROPONG 3,AC0075,233945921777,5.97558,-0.086516,THURSDAY,AKROPONG,MAMPONG,Amartey,Emmanuel Amartey
ACC AKROPONG 4,AC0076,233056771265,5.993001,-0.08375,THURSDAY,MAMPONG,TUTU/ GYANKAMA/ AHWRASE,Amartey,Emmanuel Amartey
ACC AKROPONG 5,AC0077,233588484112,5.968831,-0.089309,THURSDAY,GYANKAMA,ABURI/ PEDUASE / KITASE,Amartey,Emmanuel Amartey
ACC AKROPONG 6,AC0078,233803844500,5.968169,-0.091437,THURSDAY,AHWRASE,AMANOKROM,Amartey,Emmanuel Amartey
ACC AKROPONG 7,AC0079,233340518495,5.97558,-0.086516,THURSDAY,PEDUASE,AKROPONG/ MAMFE/ KWAMOSO,Amartey,Emmanuel Amartey
ACC AKROPONG 8,AC0080,233762176814,5.970109,-0.092904,THURSDAY,KITASE,MAMPONG,Amartey,Emmanuel Amartey
ACC AKROPONG 9,AC0081,233663346403,5.974612,-0.087877,THURSDAY,MAMFE,TUTU/ GYANKAMA/ AHWRASE,Amartey,Emmanuel Amartey
ACC AMANOKROM 1,AC0093,233234890801,0,0,THURSDAY,AHWRASE,AKROPONG/ MAMFE/ KWAMOSO,Amartey,Emmanuel Amartey
ACC AMANOKROM 2,AC0094,233769547830,0,0,THURSDAY,PEDUASE,MAMPONG,Amartey,Emmanuel Amartey
ACC AMANOKROM 3,AC0095,233033300197,5.933258,-0.123376,THURSDAY,KITASE,TUTU/ GYANKAMA/ AHWRASE,Amartey,Emmanuel Amartey
ACC AMANOKROM 4,AC0096,233788928124,0,0,THURSDAY,MAMFE,ABURI/ PEDUASE / KITASE,Amartey,Emmanuel Amartey
ACC AMANOKROM 5,AC0097,233222080015,0,0,THURSDAY,KWAMOSO,AMANOKROM,Amartey,Emmanuel Amartey
ACC AMANOKROM 6,AC0098,233221946085,0,0,THURSDAY,TUTU,AKROPONG/ MAMFE/ KWAMOSO,Amartey,Emmanuel Amartey
ACC AMANOKROM 7,AC0099,233360312559,0,0,THURSDAY,ABURI,MAMPONG,Amartey,Emmanuel Amartey
ACC AMANOKROM 8,AC0100,233415665230,0,0,THURSDAY,AMANOKROM,TUTU/ GYANKAMA/ AHWRASE,Amartey,Emmanuel Amartey
ACC AMANOKROM 9,AC0101,233928569805,0,0,THURSDAY,AKROPONG,ABURI/ PEDUASE / KITASE,Amartey,Emmanuel Amartey
ACC ASHESI 10,AC0124,233784912254,5.7648471,-0.218341,THURSDAY,MAMPONG,MAMPONG,Amartey,Emmanuel Amartey
ACC ASHESI 11,AC0125,233377201751,5.761694,-0.219751,THURSDAY,GYANKAMA,TUTU/ GYANKAMA/ AHWRASE,Amartey,Emmanuel Amartey
ACC ASHESI 6,AC0120,233319334767,5.758093,-0.221063,THURSDAY,TUTU,TUTU/ GYANKAMA/ AHWRASE,Amartey,Emmanuel Amartey
ACC ASHESI 7,AC0121,233588034515,5.753933,-0.209057,THURSDAY,ABURI,ABURI/ PEDUASE / KITASE,Amartey,Emmanuel Amartey
ACC ASHESI 8,AC0122,233741511231,5.762838,-0.219334,THURSDAY,AMANOKROM,AMANOKROM,Amartey,Emmanuel Amartey
ACC ASHESI 9,AC0123,233320782403,5.762838,-0.219334,THURSDAY,AKROPONG,AKROPONG/ MAMFE/ KWAMOSO,Amartey,Emmanuel Amartey
ACC BEREKUSO 1,AC0001,233666450496,5.7578616,-0.223203,THURSDAY,TUTU,TUTU/ GYANKAMA/ AHWRASE,Amartey,Emmanuel Amartey
ACC BEREKUSO 2,AC0002,233000639317,5.7583122,-0.2266477,THURSDAY,ABURI,ABURI/ PEDUASE / KITASE,Amartey,Emmanuel Amartey
ACC BEREKUSO 3,AC0003,233051423684,5.7609219,-0.2249274,THURSDAY,AMANOKROM,AMANOKROM,Amartey,Emmanuel Amartey
ACC COMET 1,AC0004,233304789317,5.727023,-0.235918,THURSDAY,AKROPONG,AKROPONG/ MAMFE/ KWAMOSO,Amartey,Emmanuel Amartey
ACC GYANKAMA 1,AC0102,233896413002,5.817777,-0.187115,THURSDAY,MAMPONG,AMANOKROM,Amartey,Emmanuel Amartey
ACC GYANKAMA 2,AC0103,233613637008,7.9572,-1.0306,THURSDAY,GYANKAMA,AKROPONG/ MAMFE/ KWAMOSO,Amartey,Emmanuel Amartey
ACC GYANKAMA 3,AC0104,233192659484,5.81853,-0.1847,THURSDAY,AHWRASE,MAMPONG,Amartey,Emmanuel Amartey
ACC GYANKAMA 4,AC0105,233870458024,5.8187,-0.1995,THURSDAY,PEDUASE,TUTU/ GYANKAMA/ AHWRASE,Amartey,Emmanuel Amartey
ACC GYANKAMA 5,AC0106,233373806741,5.817777,-0.187115,THURSDAY,KITASE,ABURI/ PEDUASE / KITASE,Amartey,Emmanuel Amartey
ACC GYANKAMA 7,AC0108,233059060448,5.8193168,-0.1861929,THURSDAY,MAMFE,AMANOKROM,Amartey,Emmanuel Amartey
ACC GYANKAMA 8,AC0109,233994779000,5.8180293,-0.1880792,THURSDAY,KWAMOSO,AKROPONG/ MAMFE/ KWAMOSO,Amartey,Emmanuel Amartey
ACC KITASE 1,AC0069,233610763973,5.8138,-0.883,THURSDAY,KITASE,AKROPONG/ MAMFE/ KWAMOSO,Amartey,Emmanuel Amartey
ACC KITASE 2,AC0070,233552608740,5.814,0.1864,THURSDAY,MAMFE,MAMPONG,Amartey,Emmanuel Amartey
ACC KITASE 3,AC0071,233715744750,5.814,-0.1864,THURSDAY,KWAMOSO,TUTU/ GYANKAMA/ AHWRASE,Amartey,Emmanuel Amartey
ACC KITASE 4,AC0072,233098919020,5.814,-0.1846,THURSDAY,TUTU,ABURI/ PEDUASE / KITASE,Amartey,Emmanuel Amartey
ACC KWAMOSO 1,AC0111,233467592183,5.958477,-0.131001,THURSDAY,AKROPONG,AMANOKROM,Amartey,Emmanuel Amartey
ACC KWAMOSO 3,AC0117,233109005802,5.957409,-0.147305,THURSDAY,KITASE,AMANOKROM,Amartey,Emmanuel Amartey
ACC KWAMOSO 4,AC0113,233474373649,5.958421,-0.146067,THURSDAY,MAMPONG,AKROPONG/ MAMFE/ KWAMOSO,Amartey,Emmanuel Amartey
ACC KWAMOSO 5,AC0114,233502079670,5.953926,-0.160546,THURSDAY,GYANKAMA,MAMPONG,Amartey,Emmanuel Amartey
ACC KWAMOSO 6,AC0115,233358223691,5.954424,-0.161501,THURSDAY,AHWRASE,TUTU/ GYANKAMA/ AHWRASE,Amartey,Emmanuel Amartey
ACC KWAMOSO 7,AC0116,233055506010,5.9555,-0.1769,THURSDAY,PEDUASE,ABURI/ PEDUASE / KITASE,Amartey,Emmanuel Amartey
ACC MAMFE 1,AC0045,233850538038,5.94254,-0.117525,THURSDAY,AHWRASE,MAMPONG,Amartey,Emmanuel Amartey
ACC MAMFE 2,AC0046,233977934567,5.9408,-0.11326,THURSDAY,PEDUASE,TUTU/ GYANKAMA/ AHWRASE,Amartey,Emmanuel Amartey
ACC MAMFE 3,AC0047,233274786606,0,-0.11244,THURSDAY,KITASE,ABURI/ PEDUASE / KITASE,Amartey,Emmanuel Amartey
ACC MAMFE 4,AC0048,233890979648,5.9379384,-0.1153269,THURSDAY,MAMFE,AMANOKROM,Amartey,Emmanuel Amartey
ACC MAMFE 5,AC0049,233527028477,0,0,THURSDAY,KWAMOSO,AKROPONG/ MAMFE/ KWAMOSO,Amartey,Emmanuel Amartey
ACC MAMFE 6,AC0050,233419560755,5.772469,-0.008857,THURSDAY,TUTU,MAMPONG,Amartey,Emmanuel Amartey
ACC MAMFE 7,AC0051,233102577725,5.56188,-0.06567,THURSDAY,ABURI,TUTU/ GYANKAMA/ AHWRASE,Amartey,Emmanuel Amartey
ACC MAMFE 8,AC0052,233997925760,5.9382,-0.115512,THURSDAY,AMANOKROM,ABURI/ PEDUASE / KITASE,Amartey,Emmanuel Amartey
ACC MAMPONG 1,AC0019,233626635985,5.913648,-0.142189,THURSDAY,AMANOKROM,AKROPONG/ MAMFE/ KWAMOSO,Amartey,Emmanuel Amartey
ACC MAMPONG 10,AC0028,233961843907,5.876,-0.1564,THURSDAY,TUTU,AMANOKROM,Amartey,Emmanuel Amartey
ACC MAMPONG 11,AC0029,233976162105,5.91237,-0.138052,THURSDAY,ABURI,AKROPONG/ MAMFE/ KWAMOSO,Amartey,Emmanuel Amartey
ACC MAMPONG 12,AC0030,233712839027,5.905982,-0.144067,THURSDAY,AMANOKROM,MAMPONG,Amartey,Emmanuel Amartey
ACC MAMPONG 13,AC0031,233617683490,5.92044,-0.134046,THURSDAY,AKROPONG,TUTU/ GYANKAMA/ AHWRASE,Amartey,Emmanuel Amartey
ACC MAMPONG 14,AC0032,233355642180,5.9161602,-1381468,THURSDAY,MAMPONG,ABURI/ PEDUASE / KITASE,Amartey,Emmanuel Amartey
ACC MAMPONG 15,AC0033,233279975479,5.910809,-0.141479,THURSDAY,GYANKAMA,AMANOKROM,Amartey,Emmanuel Amartey
ACC MAMPONG 16,AC0034,233504352737,5.911747,-0.14202,THURSDAY,AHWRASE,AKROPONG/ MAMFE/ KWAMOSO,Amartey,Emmanuel Amartey
ACC MAMPONG 2,AC0020,233172434625,5.904783,-0.14865,THURSDAY,AKROPONG,MAMPONG,Amartey,Emmanuel Amartey
ACC MAMPONG 3,AC0021,233738256428,5.914065,-0.144549,THURSDAY,MAMPONG,TUTU/ GYANKAMA/ AHWRASE,Amartey,Emmanuel Amartey
ACC MAMPONG 4,AC0022,233159420441,6.974483,-0.1272533,THURSDAY,GYANKAMA,ABURI/ PEDUASE / KITASE,Amartey,Emmanuel Amartey
ACC MAMPONG 5,AC0023,233222245958,5.912108,-0.1399694,THURSDAY,AHWRASE,AMANOKROM,Amartey,Emmanuel Amartey
ACC MAMPONG 6,AC0024,233133610874,5.91256,-0.142313,THURSDAY,PEDUASE,AKROPONG/ MAMFE/ KWAMOSO,Amartey,Emmanuel Amartey
ACC MAMPONG 7,AC0025,233839887416,5.904783,-0.14413,THURSDAY,KITASE,MAMPONG,Amartey,Emmanuel Amartey
ACC MAMPONG 8,AC0026,233468359956,5.9151,-0.1394,THURSDAY,MAMFE,TUTU/ GYANKAMA/ AHWRASE,Amartey,Emmanuel Amartey
ACC MAMPONG 9,AC0027,233672903279,5.918666,-0.137945,THURSDAY,KWAMOSO,ABURI/ PEDUASE / KITASE,Amartey,Emmanuel Amartey
ACC PEDUASE 1,AC0085,233014188165,5.8065,-0.1847,THURSDAY,AMANOKROM,MAMPONG,Amartey,Emmanuel Amartey
ACC PEDUASE 2,AC0086,233207362112,5.8065,-0.1847,THURSDAY,AKROPONG,TUTU/ GYANKAMA/ AHWRASE,Amartey,Emmanuel Amartey
ACC PEDUASE 3,AC0087,233998137726,5.8065,-0.1847,THURSDAY,MAMPONG,ABURI/ PEDUASE / KITASE,Amartey,Emmanuel Amartey
ACC PEDUASE 4,AC0088,233874553561,5.808281,-0.183798,THURSDAY,GYANKAMA,AMANOKROM,Amartey,Emmanuel Amartey
ACC TUTU 1,AC0053,233957638865,5.89477,-0.15076,THURSDAY,AKROPONG,AMANOKROM,Amartey,Emmanuel Amartey
ACC TUTU 10,AC0062,233698847227,5.892157,-0.153834,THURSDAY,ABURI,ABURI/ PEDUASE / KITASE,Amartey,Emmanuel Amartey
ACC TUTU 11,AC0063,233020860441,5.8938133,-0.1563234,THURSDAY,AMANOKROM,AMANOKROM,Amartey,Emmanuel Amartey
ACC TUTU 12,AC0064,233088185936,5.891082,-0.153821,THURSDAY,AKROPONG,AKROPONG/ MAMFE/ KWAMOSO,Amartey,Emmanuel Amartey
ACC TUTU 13,AC0065,233478456608,5.890261,0.153836,THURSDAY,MAMPONG,MAMPONG,Amartey,Emmanuel Amartey
ACC TUTU 14,AC0066,233438248527,5.53577,-0.08569,THURSDAY,GYANKAMA,TUTU/ GYANKAMA/ AHWRASE,Amartey,Emmanuel Amartey
ACC TUTU 15,AC0067,233166407577,5.894063,-0.149613,THURSDAY,AHWRASE,ABURI/ PEDUASE / KITASE,Amartey,Emmanuel Amartey
ACC TUTU 16,AC0068,233613120662,5.894734,-0.155172,THURSDAY,PEDUASE,AMANOKROM,Amartey,Emmanuel Amartey
ACC TUTU 2,AC0054,233714863098,5.892106,-0.151687,THURSDAY,MAMPONG,AKROPONG/ MAMFE/ KWAMOSO,Amartey,Emmanuel Amartey
ACC TUTU 3,AC0055,233157474181,5.88983,-0.153726,THURSDAY,GYANKAMA,MAMPONG,Amartey,Emmanuel Amartey
ACC TUTU 4,AC0056,233405199523,5.889584,-0.153057,THURSDAY,AHWRASE,TUTU/ GYANKAMA/ AHWRASE,Amartey,Emmanuel Amartey
ACC TUTU 5,AC0057,233829130432,5.8894877,-0.153529,THURSDAY,PEDUASE,ABURI/ PEDUASE / KITASE,Amartey,Emmanuel Amartey
ACC TUTU 6,AC0058,233428136290,5.892098,-0.151937,THURSDAY,KITASE,AMANOKROM,Amartey,Emmanuel Amartey
ACC TUTU 7,AC0059,233863513960,5.893342,-0.155286,THURSDAY,MAMFE,AKROPONG/ MAMFE/ KWAMOSO,Amartey,Emmanuel Amartey
ACC TUTU 8,AC0060,233980469525,5.53226,-0.09114,THURSDAY,KWAMOSO,MAMPONG,Amartey,Emmanuel Amartey
ACC TUTU 9,AC0061,233702358486,5.8925641,-0.1518877,THURSDAY,TUTU,TUTU/ GYANKAMA/ AHWRASE,Amartey,Emmanuel Amartey
ASHESI,32,233314961313,5.7595,-0.2198,THURSDAY,TUTU,MAMPONG,Amartey,Emmanuel Amartey
ASHESI BEREKUSU,127,233316444176,5.758488,-0.226687,THURSDAY,ABURI,TUTU/ GYANKAMA/ AHWRASE,Amartey,Emmanuel Amartey
ASHESI COMET,128,233367800608,5.727989,-0.241437,THURSDAY,AMANOKROM,ABURI/ PEDUASE / KITASE,Amartey,Emmanuel Amartey
OYARIFA AYI MENSAH,494,233481357654,5.7851578,-0.1821183,THURSDAY,OYARIFA MR SMITH,OYARIFA,Azura,Peter Azura
OYARIFA GHANA FLAG,497,233322838731,5.767582,-0.176626,THURSDAY,GHANA FLAG,OYARIFA,Azura,Peter Azura
OYARIFA MR SMITH,496,233284016981,5.745259,-0.187946,THURSDAY,MADINA,OYARIFA,Azura,Peter Azura
OYARIFA PENFIELD,372,233598379856,5.726028,-0.200194,THURSDAY,MADINA,OYARIFA,Azura,Peter Azura
OYARIFA SALEM,373,233481657062,5.7450998,-0.1762466,THURSDAY,GHANA FLAG,OYARIFA,Azura,Peter Azura
OYARIFA TEIMAN,371,233091157103,5.7181,-0.1881,FRIDAY,OYARIFA MR SMITH,OYARIFA,Azura,Peter Azura
PANTANG ABOKOBI,262,233508974900,5.733,-0.2,THURSDAY,PANTANG,ABOKOBI,Azura,Peter Azura
PANTANG ABOKOBI CALVARY,462,233132340504,5.7589,-0.1739,THURSDAY,DANFA,ABOKOBI,Azura,Peter Azura
PANTANG ABOKOBI PARAKU,472,233985513467,0,0,THURSDAY,ABOKOBI,ABOKOBI,Azura,Peter Azura
PANTANG ADENTA FIRST FRUIT,365,233103454304,5.7142,-0.1542,THURSDAY,DANFA,ABOKOBI,Azura,Peter Azura
PANTANG DANFA ALHAJI,265,233873982346,5.7921,-0.16622,THURSDAY,ABOKOBI,ABOKOBI,Azura,Peter Azura
PANTANG DANFA MEGA,261,233593146560,5.7921,-0.1622,THURSDAY,ABOKOBI,ABOKOBI,Azura,Peter Azura
PANTANG DANFA TRINITY,366,233038787828,0,0,THURSDAY,ABOKOBI,ABOKOBI,Azura,Peter Azura
PANTANG MEGA CENTRE,384,233054824856,0,0,THURSDAY,PANTANG,ABOKOBI,Azura,Peter Azura
PANTANG OYARIFA,267,233946122692,5.7556,-0.1739,THURSDAY,PANTANG,ABOKOBI,Azura,Peter Azura
PANTANG OYARIFA EPHRAIM,263,233377237485,5.7589,-0.1612,THURSDAY,DANFA,ABOKOBI,Azura,Peter Azura
PANTANG TEIMAN,461,233326888560,5.75,-0.1834,WEDNESDAY,PANTANG,ABOKOBI,Azura,Peter Azura
PANTANG TOWNSHIP,166,233637542270,0,0,THURSDAY,DANFA,ABOKOBI,Azura,Peter Azura
PANTANG VILLAGE,266,233666274342,0,0,WEDNESDAY,DANFA,ABOKOBI,Azura,Peter Azura
KOTOBABAI ABELEMPKE,355,233840175070,5.6063,-0.2081,THURSDAY,RIDGE_NIMA COMMUNITY,RIDGE,Dwimoh,Paul Dwimoh
KOTOBABI ALAJO DOWN,330,233209808910,5.5958,-0.2174,FRIDAY,RIDGE_ALAJO COMMUNITY,RIDGE,Dwimoh,Paul Dwimoh
KOTOBABI COCHM,458,233829344427,5.595747,-0.2030849,WEDNESDAY,RIDGE_ALAJO COMMUNITY,RIDGE,Dwimoh,Paul Dwimoh
KOTOBABI KOKOMLEMLE,325,233557431754,5.5748,-0.2081,THURSDAY,RIDGE_ALAJO COMMUNITY,RIDGE,Dwimoh,Paul Dwimoh
KOTOBABI MAMOBI,228,233210420980,5.5945,-0.1975,THURSDAY,RIDGE_ALAJO COMMUNITY,RIDGE,Dwimoh,Paul Dwimoh
KOTOBABI NEWTOWN,258,233363704236,5.5853,-0.2127,THURSDAY,RIDGE_NIMA COMMUNITY,RIDGE,Dwimoh,Paul Dwimoh
KOTOBABI NIMA,326,233720093813,5.5833,-0.2,THURSDAY,RIDGE_NIMA COMMUNITY,RIDGE,Dwimoh,Paul Dwimoh
KOTOBABI PIGFARM,150,233557781918,5.5991,-0.1997,THURSDAY,RIDGE_KOTOBABI COMMUNITY,RIDGE,Dwimoh,Paul Dwimoh
OSU ANOINTING,223,233488341049,5.555589,-0.185752,WEDNESDAY,OSU_LA COMMUNITY,OSU,Dwimoh,Paul Dwimoh
OSU BREAKTHROUGH,352,233128141189,5.558828,-0.18665,THURSDAY,OSU_37 COMMUNITY,OSU,Dwimoh,Paul Dwimoh
OSU CENTRE,71,233754754797,0,0,THURSDAY,OSU_LA COMMUNITY,OSU,Dwimoh,Paul Dwimoh
TN KOTOBABI,10,233532956674,5.5998,-0.2045,THURSDAY,RIDGE_KOTOBABI COMMUNITY,RIDGE,Dwimoh,Paul Dwimoh
ZENITH,44,233310206704,5.596477,-0.1520517,THURSDAY,OSU_LA COMMUNITY,OSU,Dwimoh,Paul Dwimoh
ZENITH 37,333,233237852561,5.5985138,-0.1779488,THURSDAY,OSU_COMMUNITY,OSU,Dwimoh,Paul Dwimoh
ZENITH BURMA CAMP SHEMEN,412,233686981012,5.596477,-0.149363,WEDNESDAY,OSU_37 COMMUNITY,OSU,Dwimoh,Paul Dwimoh
ZENITH LABADI,354,233866034802,5.5576953,-0.1565981,THURSDAY,OSU_COMMUNITY,OSU,Dwimoh,Paul Dwimoh
ZENITH TSE ADDO AMPLIFY,246,233241442489,0,0,FRIDAY,OSU_COMMUNITY,OSU,Dwimoh,Paul Dwimoh
ZENITH ZOE,323,233988316167,5.570528,-0.1565981,WEDNESDAY,OSU_37 COMMUNITY,OSU,Dwimoh,Paul Dwimoh
ACHIMOTA,156,233387015752,5.622297,-0.242599,THURSDAY,OFANKOR 2,OFANKOR,Kumatey,Maxwell Kumatey
ASHESI ACP,448,233756343112,0,0,THURSDAY,KWABENYA,KWABENYA,Kumatey,Maxwell Kumatey
ASHESI COMET WEST,236,233738259220,0,0,THURSDAY,KWABENYA,KWABENYA,Kumatey,Maxwell Kumatey
ASHESI MUSUKU,205,233692805492,0,0,THURSDAY,KWABENYA,KWABENYA,Kumatey,Maxwell Kumatey
ASHONGMAN,79,233834650153,0,0,THURSDAY,KWABENYA,KWABENYA,Kumatey,Maxwell Kumatey
DOME ST JOHNS,313,233482090251,5.639402,-0.2426,THURSDAY,DOME 2,DOME,Kumatey,Maxwell Kumatey
HAATSO ATOMIC DOWN,338,233646822388,0,0,FRIDAY,HAATSO 2,HAATSO,Kumatey,Maxwell Kumatey
KISSEMAN,153,233053402845,5.636518,-0.215682,THURSDAY,DOME,DOME,Kumatey,Maxwell Kumatey
KWABENYA POINT 2,361,233172672089,0,0,SATURDAY,KWABENYA,KWABENYA,Kumatey,Maxwell Kumatey
MADINA AREA,TC0019,233956767511,0,0,WEDNESDAY,MADINA 5,MADINA,Kumatey,Maxwell Kumatey
MADINA LA NKWANTANANG,148,233205754842,5.678671,-0.171237,FRIDAY,MADINA 4,MADINA,Kumatey,Maxwell Kumatey
MADINA LIBYA QUARTERS,149,233538129813,5.677784,-0.181094,WEDNESDAY,MADINA 4,MADINA,Kumatey,Maxwell Kumatey
MADINA POWERLAND,147,233706682943,5.686794,-0.17832,WEDNESDAY,MADINA 5,MADINA,Kumatey,Maxwell Kumatey
MADINA RITZ,225,233477104362,5.687006,-0.171164,THURSDAY,MADINA 3,MADINA,Kumatey,Maxwell Kumatey
MADINA TRUST,226,233721888497,5.680441,-0.18207,THURSDAY,MADINA 2,MADINA,Kumatey,Maxwell Kumatey
MADINA UN,146,233915214476,5.680361,-0.182182,THURSDAY,MADINA 2,MADINA,Kumatey,Maxwell Kumatey
OFANKOR RAILWAYS,579,233474730686,0,0,THURSDAY,OFANKOR,OFANKOR,Kumatey,Maxwell Kumatey
PARAKOU ESTATES,202,233511542052,5.639983,-0.225383,THURSDAY,DOME,DOME,Kumatey,Maxwell Kumatey
Pillar 2,56,233294311769,5.653777,-0.218205,THURSDAY,DOME 2,DOME,Kumatey,Maxwell Kumatey
TAIFA,157,233415776497,0,0,THURSDAY,OFANKOR 2,OFANKOR,Kumatey,Maxwell Kumatey
TN AMASAMAN,8,233493366223,0,0,WEDNESDAY,POKUASE,POKUASE,Kumatey,Maxwell Kumatey
TN HAATSO,3,233001468340,5.675226,-0.202442,THURSDAY,HAATSO,HAATSO,Kumatey,Maxwell Kumatey
TN KWABENYA,57,233267766259,0,0,TUESDAY,KWABENYA,KWABENYA,Kumatey,Maxwell Kumatey
TN MADINA REDCO,80,233594548020,5.684539,-0.176499,WEDNESDAY,MADINA 2,MADINA,Kumatey,Maxwell Kumatey
TN OFANKOR,9,233179414277,5.658282,-0.269125,THURSDAY,OFANKOR,OFANKOR,Kumatey,Maxwell Kumatey
TN WESTLANDS REHOBOTH,51,233093026690,5.647222,-0.210118,WEDNESDAY,WESTLANDS,WESTLANDS,Kumatey,Maxwell Kumatey
WEST LEGON PHARMACY,337,233138314785,0,0,THURSDAY,WESTLANDS,WESTLANDS,Kumatey,Maxwell Kumatey
WEST LEGON SOBER,271,233806429402,5.645081,-0.214692,THURSDAY,WESTLANDS 3,WESTLANDS,Kumatey,Maxwell Kumatey
WISCONSIN ADENTA NEWSITE,577,233229782810,5.645081,-0.214692,FRIDAY,ASHONGMAN,AGBOGBA-ASHONGMAN,Kumatey,Maxwell Kumatey
WISCONSIN AGBOGBA BETHEL,269,233602654666,5.687108,-0.194011,THURSDAY,ASHONGMAN,AGBOGBA-ASHONGMAN,Kumatey,Maxwell Kumatey
WISCONSIN AGBOGBA SUNCITY,268,233582983157,5.687108,-0.194011,THURSDAY,ASHONGMAN,AGBOGBA-ASHONGMAN,Kumatey,Maxwell Kumatey
WISCONSIN BOHYE,287,233608990122,5.684671,-0.210375,FRIDAY,WESTLANDS,WESTLANDS,Kumatey,Maxwell Kumatey
WISCONSIN DOME BORN AGAIN,422,233741377003,0,0,THURSDAY,DOME,DOME,Kumatey,Maxwell Kumatey
WISCONSIN ECOMOG,322,233621216642,0,0,THURSDAY,HAATSO,HAATSO,Kumatey,Maxwell Kumatey
WISCONSIN HAATSO PAPAO,286,233950051608,5.663304,-0.202618,THURSDAY,OFANKOR,HAATSO,Kumatey,Maxwell Kumatey
WISCONSIN HAATSO SUPERMARKET,285,233998977371,5.667563,-0.207868,THURSDAY,HAATSO 2,HAATSO,Kumatey,Maxwell Kumatey
WISCONSIN MADINA BARRIER,303,233262623018,0,0,THURSDAY,MADINA 4,AGBOGBA/MADINA,Kumatey,Maxwell Kumatey
WISCONSIN MADINA NEWSITE,306,233060647530,0,0,SATURDAY,MADINA 3,MADINA,Kumatey,Maxwell Kumatey
WISCONSIN MADINA SPRINGBOARD,305,233611706090,0,0,WEDNESDAY,MADINA 3,AGBOGBA/MADINA,Kumatey,Maxwell Kumatey
WISCONSIN MILE 7,320,233989672816,5.6286914,-0.2511711,WEDNESDAY,OFANKOR,OFANKOR,Kumatey,Maxwell Kumatey
WISCONSIN NORTH LEGON LIBYA QUARTERS,218,233760138799,5.677574,-0.181459,THURSDAY,MADINA 6,MADINA,Kumatey,Maxwell Kumatey
WISCONSIN POKUASE,419,233479982505,5.690787,-0.280582,THURSDAY,POKUASE,POKUASE,Kumatey,Maxwell Kumatey
WISCONSIN POKUASE AMOMORLEY,484,233354017915,0,0,THURSDAY,POKUASE,POKUASE,Kumatey,Maxwell Kumatey
WISCONSIN POKUASE MAYERA,429,233028553076,0,0,WEDNESDAY,POKUASE,POKUASE,Kumatey,Maxwell Kumatey
WISCONSIN POWERLAND,571,233359080780,0,0,THURSDAY,WESTLANDS,WESTLANDS,Kumatey,Maxwell Kumatey
WISCONSIN SARFOA,418,233258053858,0,0,THURSDAY,OFANKOR,OFANKOR,Kumatey,Maxwell Kumatey
WISCONSIN TAIFA BURKINA,374,233432406475,0,0,THURSDAY,OFANKOR,OFANKOR,Kumatey,Maxwell Kumatey
WISCONSIN WEST LEGON GARDEN,523,233427291641,0,0,THURSDAY,WESTLANDS 3,WESTLANDS,Kumatey,Maxwell Kumatey
WISCONSIN WEST LEGON GRACE,522,233792434316,0,0,THURSDAY,WESTLANDS 3,WESTLANDS,Kumatey,Maxwell Kumatey
ABLEKUMA AGAPE TOP,482,233942574290,5.37038,-0.18204,THURSDAY,ABLEKUMA CENTRAL,ABLEKUMA,Lamptey,Ludwig Lamptey
ABLEKUMA CENTRE,68,233616528140,5.624315,-0.29783,THURSDAY,ABLEKUMA CENTRAL,ABLEKUMA,Lamptey,Ludwig Lamptey
ABLEKUMA ONYINASI,447,233841353466,5.62822,-0.30972,THURSDAY,ABLEKUMA SOUTH,ABLEKUMA,Lamptey,Ludwig Lamptey
AWUDOME,75,233981785161,5.5703397,-0.2335493,WEDNESDAY,NORTH-KANESHIE EAST,NORTH KANESHIE,Lamptey,Ludwig Lamptey
GBAWE CENTRE,66,233298344337,5.34233,-0.18212,THURSDAY,GBAWE MALLAM,GBAWE,Lamptey,Ludwig Lamptey
GBAWE GRAVEL JUNCTION,469,233712509229,5.34436,-0.17458,THURSDAY,NEW GBAWE,GBAWE,Lamptey,Ludwig Lamptey
GBAWE TOPBASE,479,233838452127,5.68003,-0.314957,WEDNESDAY,NEW GBAWE,GBAWE,Lamptey,Ludwig Lamptey
GTUC ABEKA,178,233834758409,5.6003063,-0.2290546,THURSDAY,NORTH-KANESHIE NORTH,NORTH KANESHIE,Lamptey,Ludwig Lamptey
GTUC DEMOD,296,233051732098,5.5883672,-0.243682,WEDNESDAY,NORTH-KANESHIE WEST,NORTH KANESHIE,Lamptey,Ludwig Lamptey
GTUC HOLY TRINITY,389,233221241205,5.587861,-0.230263,WEDNESDAY,NORTH-KANESHIE SOUTH,NORTH KANESHIE,Lamptey,Ludwig Lamptey
GTUC SWANLAKE,123,233699684909,5.5767106,-0.2266128,THURSDAY,NORTH-KANESHIE EAST,NORTH KANESHIE,Lamptey,Ludwig Lamptey
LAPAZ CHANTAN,524,233646309687,5.62422,-0.25159,THURSDAY,LAPAZ TABORA,LAPAZ,Lamptey,Ludwig Lamptey
LAPAZ COSMOS,507,233992724060,5.610673,-0.256248,THURSDAY,LAPAZ SOUTH,LAPAZ,Lamptey,Ludwig Lamptey
LAPAZ ISRAEL,499,233348408833,5.631598,-0.271703,THURSDAY,LAPAZ TABORA,LAPAZ,Lamptey,Ludwig Lamptey
LAPAZ RACECOURSE,214,233158081606,5.612086,-0.269011,WEDNESDAY,LAPAZ TABORA,LAPAZ,Lamptey,Ludwig Lamptey
LAPAZ SIX TO SIX,275,233007034945,5.61864,-0.25346,TUESDAY,LAPAZ SOUTH,LAPAZ,Lamptey,Ludwig Lamptey
LAPAZ TABORA,505,233579030431,5.618812,-0.260637,THURSDAY,LAPAZ TABORA,LAPAZ,Lamptey,Ludwig Lamptey
TN LAPAZ PREMIER,55,233227794504,5.600504,-0.241435,THURSDAY,LAPAZ SOUTHEAST,LAPAZ,Lamptey,Ludwig Lamptey
ADJIRINGANOR AMERICAN HOUSE,280,233946199314,5.649234,-0.151144,THURSDAY,ADJIRINGANOR,EAST LEGON,Nakoja,Isaac Nakoja
ADJIRINGANOR DZEYON,315,233814982100,5.659323,-0.132294,THURSDAY,ADJIRINGANOR,EAST LEGON,Nakoja,Isaac Nakoja
ADJIRINGANOR GHANA-CANADA,279,233782835958,5.653732,-0.113895,THURSDAY,ADJIRINGANOR,EAST LEGON,Nakoja,Isaac Nakoja
ADJIRINGANOR MANET,357,233174689716,5.644418,-0.135254,THURSDAY,ADJIRINGANOR,EAST LEGON,Nakoja,Isaac Nakoja
ASHALEY BOTWE MARADONA,249,233531185514,5.68009,0.13774,THURSDAY,ASHALEY BOTWE,ASHALEY BOTWE,Nakoja,Isaac Nakoja
ASHALEY BOTWE NANA JUNCTION,256,233400452474,5.68922,-0.11194,FRIDAY,ASHALEY BOTWE,ASHALEY BOTWE,Nakoja,Isaac Nakoja
ASHALEY BOTWE PEACE ACADEMY,253,233552200491,5.67851,0.14425,THURSDAY,ASHALEY BOTWE,ASHALEY BOTWE,Nakoja,Isaac Nakoja
ASHALEY BOTWE SCHOOL JUNCTION WEST,259,233185774136,5.67832,0.12167,WEDNESDAY,ASHALEY BOTWE,ASHALEY BOTWE,Nakoja,Isaac Nakoja
ASHIAMAN,23,233810934227,5.688056,-0.039753,THURSDAY,ASHAIMAN,ASHAIMAN,Nakoja,Isaac Nakoja
ASHIAMAN LEBANON,301,233059809033,5.705637,-0.043604,THURSDAY,ASHAIMAN,ASHAIMAN,Nakoja,Isaac Nakoja
ASHIAMAN NEW TOWN,300,233582189243,5.701095,-0.038779,THURSDAY,ASHAIMAN,ASHAIMAN,Nakoja,Isaac Nakoja
ASHIAMAN VALCO FLAT,480,233001234355,5.691257,-0.02812,SATURDAY,ASHAIMAN,ASHAIMAN,Nakoja,Isaac Nakoja
CENTRAL UNI PRAMPRAM,99,233984899002,5.716205,0.106113,THURSDAY,DAWHENYA,SAKI/DAWHENYA,Nakoja,Isaac Nakoja
CMIOTSO COMMUNITY 22,308,233830733507,5.7177229,-0.0100868,WEDNESDAY,SAKI,SAKI/DAWHENYA,Nakoja,Isaac Nakoja
CMIOTSO JOY4FAME,181,233229023504,5.758851,0.045466,THURSDAY,SAKI,SAKI/DAWHENYA,Nakoja,Isaac Nakoja
CMIOTSO MAKARIOS,230,233144067165,5.75788,0.054413,WEDNESDAY,DAWHENYA,SAKI/DAWHENYA,Nakoja,Isaac Nakoja
COMMUNITY 25,243,233260994344,5.745537,0.039652,THURSDAY,25 COMMUNITY,SAKI/DAWHENYA,Nakoja,Isaac Nakoja
EAST LEGON MEMPEASEM,171,233490478101,5.646762,-0.167311,WEDNESDAY,MEMPEASEM,EAST LEGON,Nakoja,Isaac Nakoja
EAST LEGON PVCI,356,233584918232,5.6136349,-0.2322274,FRIDAY,,MADINA TOWNSHIP,Nakoja,Isaac Nakoja
MADINA ESTATE MAMA LIT,348,233682107007,5.6706213,-0.1692877,THURSDAY,,MADINA TOWNSHIP,Nakoja,Isaac Nakoja
MADINA ESTATE OGBODJO,162,233338669846,5.670129,-0.162003,THURSDAY,MADINA ESTATE,MADINA TOWNSHIP,Nakoja,Isaac Nakoja
MADINA ESTATE ZONE 10,163,233761884884,5.673516,-0.140436,THURSDAY,OGBOJO,MADINA TOWNSHIP,Nakoja,Isaac Nakoja
MADINA FIRESTONE,85,233003094572,5.66968,-0.1644181,WEDNESDAY,MADINA FIRESTONE,MADINA TOWNSHIP,Nakoja,Isaac Nakoja
MADINA FIRESTONE BETHEL,169,233236720317,5.666511,-0.162844,THURSDAY,,MADINA TOWNSHIP,Nakoja,Isaac Nakoja
MADINA OGBOJO JESUS,476,233852083488,5.668131,-0.159106,THURSDAY,MADINA ESTATE,MADINA TOWNSHIP,Nakoja,Isaac Nakoja
MADINA OGBOJO KING DAVID,477,233480607347,5.673701,-0.162098,THURSDAY,SOCIAL WELFARE,MADINA TOWNSHIP,Nakoja,Isaac Nakoja
MADINA OGBOJO PENTECOST,475,233438118852,5.673701,-0.137876,THURSDAY,MADINA ESTATE,MADINA TOWNSHIP,Nakoja,Isaac Nakoja
MARITIME ABLADE,282,233275787419,5.605692,-0.061393,THURSDAY,SAKUMONO,TESHIE/SPINTEX,Nakoja,Isaac Nakoja
MARITIME TESHIE CAMP 2,456,233916966614,0,0,WEDNESDAY,SAKUMONO,TESHIE/SPINTEX,Nakoja,Isaac Nakoja
OGBOJO DZEN AYOR CHARISMATA,346,233183832990,5.5749,-0.1536,THURSDAY,OGBOJO,MADINA TOWNSHIP,Nakoja,Isaac Nakoja
OGBOJO ESTATE GRACE,388,233907387266,5.673405,-0.162627,THURSDAY,MADINA ESTATE,MADINA TOWNSHIP,Nakoja,Isaac Nakoja
OGBOJO GRACE CENTER,502,233548348673,5.6699,-0.139,WEDNESDAY,OGBOJO,MADINA TOWNSHIP,Nakoja,Isaac Nakoja
OGBOJO HIS GLORY ALONE,347,233322243641,5.666037,-0.142159,THURSDAY,OGBOJO,MADINA TOWNSHIP,Nakoja,Isaac Nakoja
OGBOJO HIS PRESENCE,82,233337638222,5.677653,-0.16071,THURSDAY,SOCIAL WELFARE,MADINA TOWNSHIP,Nakoja,Isaac Nakoja
OGBOJO HOLY SPIRIT,503,233759661298,5.680838,-0.155942,THURSDAY,SOCIAL WELFARE,MADINA TOWNSHIP,Nakoja,Isaac Nakoja
OGBOJO SHALOM CENTER,500,233786823217,5.67007,-0.14503,THURSDAY,OGBOJO,MADINA TOWNSHIP,Nakoja,Isaac Nakoja
SAKI NUMBER ONE,310,233014377540,5.740007,-0.015895,TUESDAY,GBETSILE,SAKI/DAWHENYA,Nakoja,Isaac Nakoja
SAKUMONO,215,233736049180,5.613177,-0.046774,THURSDAY,SAKUMONO,TESHIE/SPINTEX,Nakoja,Isaac Nakoja
SPINTEX ANAGKAZO,182,233265840393,5.627955,-0.115752,WEDNESDAY,SPINTEX,TESHIE/SPINTEX,Nakoja,Isaac Nakoja
SPINTEX CENTRE,65,233566410367,5.624043,-0.091153,WEDNESDAY,SPINTEX,TESHIE/SPINTEX,Nakoja,Isaac Nakoja
SPINTEX LASHIBI,219,233790061466,5.647553,-0.060277,THURSDAY,SPINTEX,TESHIE/SPINTEX,Nakoja,Isaac Nakoja
SPINTEX MANET,180,233051760537,5.636668,-0.125636,THURSDAY,SPINTEX,TESHIE/SPINTEX,Nakoja,Isaac Nakoja
SPINTEX PALACE,576,233253192637,5.626848,-0.153549,FRIDAY,PALACE,TESHIE/SPINTEX,Nakoja,Isaac Nakoja
SPINTEX SHEMEN,138,233004634312,5.6234,-0.106749,THURSDAY,SPINTEX,TESHIE/SPINTEX,Nakoja,Isaac Nakoja
SPINTEX TESHIE-ESTATE CENTRE,556,233327879130,5.604024,-0.100466,WEDNESDAY,SPINTEX,TESHIE/SPINTEX,Nakoja,Isaac Nakoja
TEMA COMMUNITY 2,160,233671792948,5.631359,-0.016419,THURSDAY,TEMA,TEMA/ASHAIMAN,Nakoja,Isaac Nakoja
TEMA COMMUNITY 23,135,233723117006,5.677238,-0.063605,THURSDAY,ASHAIMAN,ASHAIMAN,Nakoja,Isaac Nakoja
TEMA COMMUNITY 7,314,233088527305,5.657721,-0.010813,THURSDAY,TEMA,TEMA/ASHAIMAN,Nakoja,Isaac Nakoja
TEMA EAST,98,233282654470,5.6400694,0.0008128,THURSDAY,TEMA,TEMA/ASHAIMAN,Nakoja,Isaac Nakoja
TEMA SOUTH,124,233585110353,5.6709527,-0.0107044,THURSDAY,TEMA,TEMA/ASHAIMAN,Nakoja,Isaac Nakoja
TESHIE FIRST JUNCTION,220,233225697364,5.5968651,-0.1044694,THURSDAY,TESHIE,TESHIE/SPINTEX,Nakoja,Isaac Nakoja
TESHIE LASCALA,222,233055029176,0,0,FRIDAY,TESHIE,TESHIE/SPINTEX,Nakoja,Isaac Nakoja
TESHIE TEBIBIANO,221,233512063195,5.601289,-0.12644,THURSDAY,TESHIE,TESHIE/SPINTEX,Nakoja,Isaac Nakoja
TN EAST LEGON CHURCH PLANTING,49,233481954305,5.643321,-0.166488,WEDNESDAY,OKPONGLO,EAST LEGON,Nakoja,Isaac Nakoja
TN TEMA,15,233375519892,5.661957,-0.01952,THURSDAY,TEMA,TEMA/ASHAIMAN,Nakoja,Isaac Nakoja
TN TEMA COMMUNITY 3,298,233147268140,5.6652496,-0.0278376,THURSDAY,TEMA,TEMA/ASHAIMAN,Nakoja,Isaac Nakoja
TN TEMA COMMUNITY 5,299,233277419289,5.645258,-0.018583,FRIDAY,TEMA,TEMA/ASHAIMAN,Nakoja,Isaac Nakoja
TN TEMA NEW TOWN,425,233645306127,5.657721,-0.010813,THURSDAY,,TEMA/ASHAIMAN,Nakoja,Isaac Nakoja
TN TESHIE,13,233677542750,5.606319,-0.116101,THURSDAY,TESHIE,TESHIE/SPINTEX,Nakoja,Isaac Nakoja
TN UDL,17,233645606882,5.726423,-0.003319,THURSDAY,SAKI,SAKI/DAWHENYA,Nakoja,Isaac Nakoja
UPSA ADENTA FILING,375,233374346119,5.690535,-0.17031,THURSDAY,ADENTA,MADINA TOWNSHIP,Nakoja,Isaac Nakoja
UPSA ADENTA NEW SITE,464,233037373531,5.7104483,-0.1739262,THURSDAY,ADENTA,MADINA TOWNSHIP,Nakoja,Isaac Nakoja
UPSA ADENTA ZION,572,233152959459,5.7056,0.1716,THURSDAY,ADENTA,MADINA TOWNSHIP,Nakoja,Isaac Nakoja
UPSA AMPLIFY YOUR MINISTRY,63,233754712459,5.651305,-0.160157,THURSDAY,VERONY,EAST LEGON,Nakoja,Isaac Nakoja
UPSA ASHALEY BOTWE,95,233761926230,5.68943,0.13453,THURSDAY,ASHALEY BOTWE,ASHALEY BOTWE,Nakoja,Isaac Nakoja
UPSA CORNERSTONE (AGENDA),62,233407096202,5.667753,-0.169285,WEDNESDAY,,MADINA TOWNSHIP,Nakoja,Isaac Nakoja
UPSA EAST LEGON ACACIA,562,233715943735,5.6532742,-0.1553465,WEDNESDAY,VERONY,EAST LEGON,Nakoja,Isaac Nakoja
UPSA EAST LEGON ALLOS,564,233668882823,5.6462775,-0.165096,WEDNESDAY,VERONY,EAST LEGON,Nakoja,Isaac Nakoja
UPSA EAST LEGON ANOINTED CENTER,392,233146360666,5.646762,-0.167311,WEDNESDAY,MEMPEASEM,EAST LEGON,Nakoja,Isaac Nakoja
UPSA EAST LEGON BAWALESHIE,167,233485754285,5.643321,-0.166488,WEDNESDAY,MEMPEASEM,EAST LEGON,Nakoja,Isaac Nakoja
UPSA EAST LEGON GARNET,573,233043532337,5.6546238,0.1620192,WEDNESDAY,VERONY,EAST LEGON,Nakoja,Isaac Nakoja
UPSA EAST LEGON GOOD GENERAL,393,233592598811,5.6416537,-0.1741659,WEDNESDAY,OKPONGLO,EAST LEGON,Nakoja,Isaac Nakoja
UPSA EAST LEGON OTHERS CENTER,391,233534437570,5.5501642,-0.2006732,WEDNESDAY,OKPONGLO,EAST LEGON,Nakoja,Isaac Nakoja
UPSA EAST LEGON REHOBOTH,563,233520435902,5.6546238,-0.1620192,WEDNESDAY,VERONY,EAST LEGON,Nakoja,Isaac Nakoja
UPSA EAST LEGON SHEMEN,387,233964213033,5.651305,-0.160157,WEDNESDAY,VERONY,EAST LEGON,Nakoja,Isaac Nakoja
UPSA FIRESTONE DOKU,316,233219458908,5.6884575,-0.1685004,THURSDAY,MADINA FIRESTONE,MADINA TOWNSHIP,Nakoja,Isaac Nakoja
UPSA FIRESTONE MADINA MUSTARD SEED,483,233712011385,5.66968,-0.164418,THURSDAY,MADINA FIRESTONE,MADINA TOWNSHIP,Nakoja,Isaac Nakoja
UPSA GOSPEL,100,233638159167,5.664243,-0.159133,THURSDAY,MADINA ESTATE,MADINA TOWNSHIP,Nakoja,Isaac Nakoja
UPSA HOLY HILL,545,233523987110,5.659268,-0.166292,THURSDAY,,MADINA TOWNSHIP,Nakoja,Isaac Nakoja
UPSA JAPAN MOTORS,126,233113402707,5.68781,0.13247,WEDNESDAY,ASHALEY BOTWE,ASHALEY BOTWE,Nakoja,Isaac Nakoja
UPSA LA NKWATANANG,97,233937473192,5.682929,-0.170882,WEDNESDAY,LA NKWANTANANG,MADINA TOWNSHIP,Nakoja,Isaac Nakoja
UPSA MADINA ESTATE NO. BOB SCHOOL,404,233549731074,5.6674765,-0.147311,THURSDAY,OGBOJO,MADINA TOWNSHIP,Nakoja,Isaac Nakoja
UPSA MADINA ESTATE SYKA,402,233032881234,5.668482,-0.152254,THURSDAY,MADINA ESTATE,MADINA TOWNSHIP,Nakoja,Isaac Nakoja
UPSA MADINA FIRESTONE AMPLIFY,560,233976239847,5.686256,-0.165583,SATURDAY,MADINA FIRESTONE,MADINA TOWNSHIP,Nakoja,Isaac Nakoja
UPSA MADINA FIRESTONE BARRIER,558,233675334478,5.694524,-0.171752,WEDNESDAY,FIRESTONE,MADINA TOWNSHIP,Nakoja,Isaac Nakoja
UPSA MADINA FIRESTONE CENTRAL,561,233988030556,5.667535,-0.169404,SATURDAY,,MADINA TOWNSHIP,Nakoja,Isaac Nakoja
UPSA MADINA FIRESTONE RITZ,559,233630020504,5.686256,-0.165583,SATURDAY,,MADINA TOWNSHIP,Nakoja,Isaac Nakoja
UPSA MADINA FIRESTONE SOUTH,379,233462917651,5.667753,-0.169285,WEDNESDAY,MADINA FIRESTONE,MADINA TOWNSHIP,Nakoja,Isaac Nakoja
UPSA SHIASHIE,94,233505342706,5.627938,-0.164687,THURSDAY,SHIASHIE,EAST LEGON,Nakoja,Isaac Nakoja
UPSA TEL AVIV,170,233756771243,5.68698,0.1592,THURSDAY,ASHALEY BOTWE,ASHALEY BOTWE,Nakoja,Isaac Nakoja
ADENTA BARRIER,530,233437716980,5.696351,-0.170101,THURSDAY,NEW SITE,ADENTA,Ngwato,Kenny Ngwato
ADENTA CONTAINER,528,233664545130,5.712671,-0.143635,THURSDAY,RITZ JUNCTION,ADENTA,Ngwato,Kenny Ngwato
ADENTA HOUSING DOWN,527,233597064416,5.708634,-0.150787,THURSDAY,FOSTER HOME,ADENTA,Ngwato,Kenny Ngwato
ADENTA MANTEY FARMS,525,233004300904,5.725263,-0.165844,WEDNESDAY,AMRAHIA,ADENTA,Ngwato,Kenny Ngwato
ADENTA NEW LEGON,529,233359348714,5.709333,0.127954,THURSDAY,COMMANDOS RESEARCH,ADENTA,Ngwato,Kenny Ngwato
ADENTA NEW SITE,526,233091900675,5.710116,-0.171597,THURSDAY,AMANFROM,ADENTA,Ngwato,Kenny Ngwato
FOSTER HOME,91,233246913597,5.734327,-0.152725,THURSDAY,RITZ JUNCTION,ADENTA,Ngwato,Kenny Ngwato
VALLEY VIEW ASHIYIE,129,233029233076,5.741644,-0.155115,THURSDAY,COMMANDOS RESEARCH,ADENTA,Ngwato,Kenny Ngwato
VALLEY VIEW TEIMAN,136,233210444370,5.753702,-0.177953,THURSDAY,NEW SITE,ADENTA,Ngwato,Kenny Ngwato
VVU OYIBI ADENTA SDA,208,233530955808,5.699334,-0.169236,THURSDAY,OYIBI,ADENTA,Ngwato,Kenny Ngwato
VVU OYIBI AMARHIA SOUTH,232,233665375194,5.7610299,-0.1415455,THURSDAY,AMANFROM,OYIBI,Ngwato,Kenny Ngwato
VVU OYIBI COMMANDOS RESEARCH,233,233790090736,5.720671,-0.144672,THURSDAY,GOOD NEWS BIBLE SEMINARY,ADENTA,Ngwato,Kenny Ngwato
VVU OYIBI GOOD NEWS,43,233650349308,5.8124684,-0.1224388,THURSDAY,OYIBI,OYIBI,Ngwato,Kenny Ngwato
VVU OYIBI MALEJOR,201,233288094919,5.7766067,-0.1391745,THURSDAY,AMRAHIA,OYIBI,Ngwato,Kenny Ngwato
VVU OYIBI RITZ JUNCTION,209,233784548164,5.688266,-0.168304,THURSDAY,DODOWA,ADENTA,Ngwato,Kenny Ngwato
VVU VALLEY VIEW AMARHIA,131,233719342737,5.7641277,-0.1492488,THURSDAY,DODOWA,OYIBI,Ngwato,Kenny Ngwato
VVU VALLEY VIEW DODOWA,134,233099226209,5.8151618,-0.1188838,THURSDAY,GOOD NEWS BIBLE SEMINARY,OYIBI,Ngwato,Kenny Ngwato
AP ACCRA NEW TOWN,278,233760538829,5.5593,-0.2417,THURSDAY,ADABRAKA,ADABRAKA,Opoku,Frank Opoku
AP ADABRAKA ATP,142,233660537811,5.564365,-0.210261,WEDNESDAY,ADABRAKA,ADABRAKA,Opoku,Frank Opoku
AP ADABRAKA CHAMPION,369,233631838133,5.5722,-0.2727,WEDNESDAY,ADABRAKA,ADABRAKA,Opoku,Frank Opoku
AP ADABRAKA MARKET CENTRE,411,233328309413,5.585889,-0.2595582,WEDNESDAY,ADABRAKA,ADABRAKA,Opoku,Frank Opoku
AP AGBOGBLOSHIE,276,233144762553,5.5801,-0.267367,THURSDAY,ADABRAKA,ADABRAKA,Opoku,Frank Opoku
AP AGBOGBLOSHIE GIRLS HOSTEL,492,233358609206,5.5429,0.2549,WEDNESDAY,ADABRAKA,ADABRAKA,Opoku,Frank Opoku
AP ASYLUM DOWN,273,233766837817,5.570883,-0.254556,WEDNESDAY,ADABRAKA,ADABRAKA,Opoku,Frank Opoku
AP KOKOMLEMLE,143,233269038110,5.551448,-0.215965,WEDNESDAY,ADABRAKA,ADABRAKA,Opoku,Frank Opoku
AWOSHIE,555,233357850184,0,0,WEDNESDAY,ODORKOR,ODORKOR,Opoku,Frank Opoku
BUBUASHIE,173,233294243749,5.563681,-0.257471,THURSDAY,DANSOMAN NORTH,DANSOMAN,Opoku,Frank Opoku
DANSOMAN AKOKO PHOTO,229,233477611342,5.563088,-0.242922,THURSDAY,DANSOMAN EAST,DANSOMAN,Opoku,Frank Opoku
DANSOMAN B-OPOKU,400,233411956347,5.5372584,-0.2321646,THURSDAY,DANSOMAN WEST,DANSOMAN,Opoku,Frank Opoku
DANSOMAN BANANA INN,117,233335105545,5.552293,-0.260795,THURSDAY,DANSOMAN SOITH,DANSOMAN,Opoku,Frank Opoku
DANSOMAN CRYSTAL BEAM,455,233356866358,5.53189,-0.229309,THURSDAY,DANSOMAN WEST,DANSOMAN,Opoku,Frank Opoku
DANSOMAN EBENEZER DOWN,344,233195243946,5.535896,-0.226463,THURSDAY,DANSOMAN SOUTH,DANSOMAN,Opoku,Frank Opoku
DANSOMAN HANSONIC,217,233021293496,5.555266,-0.264584,WEDNESDAY,DANSOMAN CENTRAL,DANSOMAN,Opoku,Frank Opoku
DANSOMAN KEEP FIT,532,233146731918,5.5519284,-0.2420021,THURSDAY,DANSOMAN WEST,DANSOMAN,Opoku,Frank Opoku
DANSOMAN LAST STOP,118,233132906794,5.573618,-0.252935,THURSDAY,DANSOMAN SOUTH,DANSOMAN,Opoku,Frank Opoku
DANSOMAN MARSHALLS,565,233598198909,5.54618,-0.245938,WEDNESDAY,DANSOMAN NORTH,DANSOMAN,Opoku,Frank Opoku
DANSOMAN ROUNDABOUT,64,233688813077,5.565305,-0.243391,THURSDAY,DANSOMAN WEST,DANSOMAN,Opoku,Frank Opoku
DANSOMAN RUSSIA 2,343,233980065843,5.536889,-0.210972,THURSDAY,DANSOMAN EAST,DANSOMAN,Opoku,Frank Opoku
DANSOMAN RUSSIA MARS,340,233821434317,5.578471,-0.257226,THURSDAY,DANSOMAN CENTRAL,DANSOMAN,Opoku,Frank Opoku
DANSOMAN SAHARA,177,233782498953,5.5285,-0.2723,FRIDAY,DAMSOMAN CENTRAL,DANSOMAN,Opoku,Frank Opoku
DANSOMAN TUNGA,294,233452583598,5.557057,-0.272763,THURSDAY,DANSOMAN SOUTH,DANSOMAN,Opoku,Frank Opoku
DARKUMAN CENTRE,73,233707226401,5.573618,-0.252935,THURSDAY,DANSOMAN NORTH,DANSOMAN,Opoku,Frank Opoku
KASOA AMERICAN DOWN,281,233357743381,5.584849,-0.278133,THURSDAY,NYANYANYO,KASOA,Opoku,Frank Opoku
KASOA APLAKU,534,233024374695,0,0,THURSDAY,APLAKU,KASOA,Opoku,Frank Opoku
KASOA FIIFI DOWN,120,233202301938,0,0,WEDNESDAY,NYANYANYO,KASOA,Opoku,Frank Opoku
KASOA MCCARTHY,382,233402739489,5.587584,-0.263946,THURSDAY,WEIJA,KASOA,Opoku,Frank Opoku
KASOA MILLENIUM CITY,533,233061169807,0,0,THURSDAY,NYANYANYO,KASOA,Opoku,Frank Opoku
KASOA TETEGU,257,233039520454,0,0,WEDNESDAY,WEIJA,KASOA,Opoku,Frank Opoku
KASOA WEST END,471,233974459509,0,0,THURSDAY,TN KASOA,KASOA,Opoku,Frank Opoku
KB ABOSSEY OKAI,512,233164772437,5.5369,-0.210962,THURSDAY,BRITISH ACCRA WEST,BRITISH ACCRA,Opoku,Frank Opoku
KB ACCRA CENTRAL,460,233654576549,5.539235,-0.21356,THURSDAY,JAMESTOWN,BRITISH ACCRA,Opoku,Frank Opoku
KB AGEGE KARIKARI,206,233024411014,5.548161,-0.238761,THURSDAY,,BRITISH ACCRA,Opoku,Frank Opoku
KB AGEGE ZONE 6,234,233981422742,5.548243,-0.219499,THURSDAY,BRITISH ACCRA EAST,BRITISH ACCRA,Opoku,Frank Opoku
KB AMPLIFY ANAGKAZO HOSTEL,438,233267873108,5.535896,-0.226463,WEDNESDAY,BRITISH ACCRA WEST,BRITISH ACCRA,Opoku,Frank Opoku
KB AMPLIFY KORLE GONNO,432,233672608089,5.534294,-0.211316,THURSDAY,,BRITISH ACCRA,Opoku,Frank Opoku
KB AMPLIFY SOZO,433,233698219899,5.534725,-0.232894,WEDNESDAY,BRITISH ACCRA WEST,BRITISH ACCRA,Opoku,Frank Opoku
KB ARENA AMPLIFY,216,233248906808,5.535896,-0.226463,THURSDAY,BRITISH ACCRA WEST,BRITISH ACCRA,Opoku,Frank Opoku
KB GBESE,360,233286931053,5.535896,-0.226463,WEDNESDAY,JAMESTOWN,BRITISH ACCRA,Opoku,Frank Opoku
KB JAMESTOWN ANOINTING,518,233251154802,5.5146251,-0.4194613,THURSDAY,,BRITISH ACCRA,Opoku,Frank Opoku
KB JAMESTOWN BLOSSOM,517,233187184687,5.555755,-0.309885,THURSDAY,JAMESTOWN,BRITISH ACCRA,Opoku,Frank Opoku
KB JAMESTOWN FRUITFUL,513,233489317035,5.551928,-0.232441,THURSDAY,JAMESTOWN,BRITISH ACCRA,Opoku,Frank Opoku
KB JAMESTOWN HOLY SPIRIT,516,233298529885,5.484501,-0.4133941,THURSDAY,,BRITISH ACCRA,Opoku,Frank Opoku
KB JAMESTOWN MEGA CENTRE,515,233883035275,5.52284,-0.47426,WEDNESDAY,,BRITISH ACCRA,Opoku,Frank Opoku
KB JAMESTOWN OVERFLOW,514,233086460793,5.5303573,-0.4077162,WEDNESDAY,JAMESTOWN,BRITISH ACCRA,Opoku,Frank Opoku
KB KANESHIE,454,233870351651,5.5291442,-0.2476717,THURSDAY,LATERBIOKOSHIE,BRITISH ACCRA,Opoku,Frank Opoku
KB KORLE GONNO BERNADO,511,233678442576,5.53486,-0.231889,THURSDAY,BRITISH ACCRA WEST,BRITISH ACCRA,Opoku,Frank Opoku
KB KORLE GONNO CHARIS,508,233863778321,5.535251,-0.213043,THURSDAY,BRITISH ACCRA WEST,BRITISH ACCRA,Opoku,Frank Opoku
KB KORLE GONNO FRUITFUL,457,233454558124,5.53486,-0.231889,THURSDAY,BRITISH ACCRA WEST,BRITISH ACCRA,Opoku,Frank Opoku
KB KORLE GONNO TELL THEM,509,233250541624,5.534294,-0.211316,THURSDAY,BRITISH ACCRA EAST,BRITISH ACCRA,Opoku,Frank Opoku
KB LATERBIOKORSHIE AYIGBE TOWN,519,233277549290,5.5698182,-0.2870336,THURSDAY,LATERBIOKOSHIE,BRITISH ACCRA,Opoku,Frank Opoku
KB LATERBIOKORSHIE VICTORY,137,233217870560,5.534294,-0.211316,THURSDAY,LATERBIOKOSHIE,BRITISH ACCRA,Opoku,Frank Opoku
KB MAMPROBI,179,233879834541,5.539235,-0.21356,THURSDAY,BRITISH ACCRA EAST,BRITISH ACCRA,Opoku,Frank Opoku
KB MAMPROBI AMPLIFY,250,233340208954,5.535896,-0.226463,WEDNESDAY,BRITISH ACCRA EAST,BRITISH ACCRA,Opoku,Frank Opoku
KB MAMPROBI JOY,459,233088988028,5.559555,-0.233989,THURSDAY,,BRITISH ACCRA,Opoku,Frank Opoku
KB MAMPROBI SANTANA JOY,510,233788762404,5.534294,-0.211316,THURSDAY,BRITISH ACCRA EAST,BRITISH ACCRA,Opoku,Frank Opoku
KB USSHER FORT,358,233584739846,5.567872,-0.244585,WEDNESDAY,JAMESTOWN,BRITISH ACCRA,Opoku,Frank Opoku
KORLE GONNA BARCELONA JUNCTION,130,233529835539,5.536087,-0.242111,THURSDAY,BRITISH ACCRA WEST,BRITISH ACCRA,Opoku,Frank Opoku
KWASHIEMAN,86,233304217292,0,0,THURSDAY,ODORKOR,ODORKOR,Opoku,Frank Opoku
LATERBIOKORSHIE MUSTARD SEED,421,233946379459,5.53534,-0.23988,THURSDAY,LATERBIOKOSHIE,BRITISH ACCRA,Opoku,Frank Opoku
LIBERIA CAMP,119,233991292676,5.52737,-0.3283,THURSDAY,TN KASOA,KASOA,Opoku,Frank Opoku
MATAHEKO CAMPUS,174,233486918547,5.548053,-0.263911,THURSDAY,DANSOMAN EAST,DANSOMAN,Opoku,Frank Opoku
MATAHEKO CENTRE,37,233507310294,5.5317962,-0.258399,WEDNESDAY,DANSOMAN EAST,DANSOMAN,Opoku,Frank Opoku
METHODIST UNI AREA,176,233419608940,5.556541,-0.251227,THURSDAY,DANSOMAN CENTRAL,DANSOMAN,Opoku,Frank Opoku
ODORKOR,569,233297539574,0,0,THURSDAY,ODORKOR,ODORKOR,Opoku,Frank Opoku
ODORKOR / BUSIA,47,233839703870,5.580488,-0.247974,THURSDAY,DANSOMAN WEST,DANSOMAN,Opoku,Frank Opoku
SAKAMAN CENTRE,69,233925636628,5.562484,271894,THURSDAY,DANSOMAN WEST,DANSOMAN,Opoku,Frank Opoku
SSNIT FLATS,175,233193924943,5.567131,-0.256948,THURSDAY,DANSOMAN WEST,DANSOMAN,Opoku,Frank Opoku
TN CHORKOR NOT A NOVICE,50,233376550508,5.54236,-0.249918,THURSDAY,JAMESTOWN,BRITISH ACCRA,Opoku,Frank Opoku
TN JAMESTOWN FAITH,19,233589336117,5.5280318,-0.2596122,WEDNESDAY,JAMESTOWN,BRITISH ACCRA,Opoku,Frank Opoku
TN KASOA,14,233660606050,5.4929863,-0.4106727,THURSDAY,TN KASOA,KASOA,Opoku,Frank Opoku
TN KORLE GONNO HEALING PRESENCE,20,233745541059,5.551141,-0.213798,WEDNESDAY,BRITISH ACCRA WEST,BRITISH ACCRA,Opoku,Frank Opoku